EUTELSAT QUANTUM        
1 49056U 21069B   25286.92512557  .00000113  00000+0  00000+0 0  9994
2 49056   0.0087 106.7144 0002762 122.0675 174.7076  1.00269821 15450
EUTELSAT KONNECT VHTS   
1 53765U 22110A   25286.91619885  .00000003  00000+0  00000+0 0  9993
2 53765   0.0581  96.9052 0002580  96.5149 161.8226  1.00270480  4352
EUTELSAT HOTBIRD 13F    
1 54048U 22134A   25286.91827887  .00000074  00000+0  00000+0 0  9995
2 54048   0.0597 280.8959 0002058  81.6232   3.8000  1.00274051 10903
EUTELSAT HOTBIRD 13G    
1 54225U 22146A   25286.91827887  .00000073  00000+0  00000+0 0  9994
2 54225   0.0528 237.7867 0001922 305.1470 183.3900  1.00269486  4991
EUTELSAT 10B            
1 54259U 22157A   25286.91758553  .00000054  00000+0  00000+0 0  9995
2 54259   0.0602  93.9906 0001636  47.6688 221.3744  1.00269427 10551
EUTELSAT 36D            
1 59346U 24059A   25286.92278556  .00000142  00000+0  00000+0 0  9999
2 59346   0.0176 230.5433 0000150  54.3710 105.8613  1.00270423  5670
